{"type": "FeatureCollection", "features": [ {"type": "Feature", "properties": {"norad_id": 32289, "name": "YAOGAN-3", "group": "resource", "lat": 53.543309302860585, "lon": -146.47666876688263, "alt_km": 592.7507353709962, "timestamp": "2025-12-22T05:49:03.138841+00:00", "meta": {"OBJECT_NAME": "YAOGAN-3", "OBJECT_ID": "2007-055A", "EPOCH": "2025-12-21T21:11:46.934304", "MEAN_MOTION": 14.89895012, "ECCENTRICITY": 0.0001082, "INCLINATION": 97.8352, "RA_OF_ASC_NODE": 22.4253, "ARG_OF_PERICENTER": 77.3437, "MEAN_ANOMALY": 282.7901, "EPHEMERIS_TYPE": 0, "CLASSIFICATION_TYPE": "U", "NORAD_CAT_ID": 32289, "ELEMENT_SET_NO": 999, "REV_AT_EPOCH": 97945, "BSTAR": 0.00014911, "MEAN_MOTION_DOT": 1.378e-05, "MEAN_MOTION_DDOT": 0}, "tle": {"line1": "1 32289U 07055A   25355.88318211  .00001378  00000+0  14911-3 0  9990", "line2": "2 32289  97.8352  22.4253 0001082  77.3437 282.7901 14.89895012979450"}}, "geometry": {"type": "Point", "coordinates": [-146.47666876688263, 53.543309302860585]}}, {"type": "Feature", "properties": {"norad_id": 32376, "name": "COSMO-SKYMED 2", "group": "resource", "lat": 38.70644303152109, "lon": 3.7953357840446436, "alt_km": 619.1737395312366, "timestamp": "2025-12-22T05:49:03.138852+00:00", "meta": {"OBJECT_NAME": "COSMO-SKYMED 2", "OBJECT_ID": "2007-059A", "EPOCH": "2025-12-21T19:27:47.287872", "MEAN_MOTION": 14.82152957, "ECCENTRICITY": 0.0001336, "INCLINATION": 97.8804, "RA_OF_ASC_NODE": 176.9982, "ARG_OF_PERICENTER": 83.0592, "MEAN_ANOMALY": 277.0773, "EPHEMERIS_TYPE": 0, "CLASSIFICATION_TYPE": "U", "NORAD_CAT_ID": 32376, "ELEMENT_SET_NO": 999, "REV_AT_EPOCH": 97572, "BSTAR": 6.1522e-05, "MEAN_MOTION_DOT": 4.38e-06, "MEAN_MOTION_DDOT": 0}, "tle": {"line1": "1 32376U 07059A   25355.81096398  .00000438  00000+0  61522-4 0  9990", "line2": "2 32376  97.8804 176.9982 0001336  83.0592 277.0773 14.82152957975728"}}, "geometry": {"type": "Point", "coordinates": [3.7953357840446436, 38.70644303152109]}}, {"type": "Feature", "properties": {"norad_id": 32382, "name": "RADARSAT-2", "group": "resource", "lat": 70.09399404066392, "lon": -154.66814988248862, "alt_km": 784.2297331572445, "timestamp": "2025-12-22T05:49:03.138863+00:00", "meta": {"OBJECT_NAME": "RADARSAT-2", "OBJECT_ID": "2007-061A", "EPOCH": "2025-12-21T20:55:04.468800", "MEAN_MOTION": 14.29983047, "ECCENTRICITY": 0.0001144, "INCLINATION": 98.579, "RA_OF_ASC_NODE": 0.3287, "ARG_OF_PERICENTER": 84.3569, "MEAN_ANOMALY": 275.7744, "EPHEMERIS_TYPE": 0, "CLASSIFICATION_TYPE": "U", "NORAD_CAT_ID": 32382, "ELEMENT_SET_NO": 999, "REV_AT_EPOCH": 94061, "BSTAR": -7.5714e-05, "MEAN_MOTION_DOT": -2.39e-06, "MEAN_MOTION_DDOT": 0}, "tle": {"line1": "1 32382U 07061A   25355.87157950 -.00000239  00000+0 -75714-4 0  9997", "line2": "2 32382  98.5790   0.3287 0001144  84.3569 275.7744 14.29983047940616"}}, "geometry": {"type": "Point", "coordinates": [-154.66814988248862, 70.09399404066392]}}, {"type": "Feature", "properties": {"norad_id": 32783, "name": "CARTOSAT-2A", "group": "resource", "lat": 9.027763998089862, "lon": -132.98463680621708, "alt_km": 641.9123442661812, "timestamp": "2025-12-22T05:49:03.138873+00:00", "meta": {"OBJECT_NAME": "CARTOSAT-2A", "OBJECT_ID": "2008-021A", "EPOCH": "2025-12-21T20:55:42.896928", "MEAN_MOTION": 14.78946823, "ECCENTRICITY": 0.0011174, "INCLINATION": 97.7919, "RA_OF_ASC_NODE": 45.41, "ARG_OF_PERICENTER": 334.8767, "MEAN_ANOMALY": 25.19, "EPHEMERIS_TYPE": 0, "CLASSIFICATION_TYPE": "U", "NORAD_CAT_ID": 32783, "ELEMENT_SET_NO": 999, "REV_AT_EPOCH": 95259, "BSTAR": -6.8758e-05, "MEAN_MOTION_DOT": -5.58e-06, "MEAN_MOTION_DDOT": 0}, "tle": {"line1": "1 32783U 08021A   25355.87202427 -.00000558  00000+0 -68758-4 0  9993", "line2": "2 32783  97.7919  45.4100 0011174 334.8767  25.1900 14.78946823952592"}}, "geometry": {"type": "Point", "coordinates": [-132.98463680621708, 9.027763998089862]}}, {"type": "Feature", "properties": {"norad_id": 33320, "name": "HUANJING 1A (HJ-1A)", "group": "resource", "lat": -8.607742209131974, "lon": 162.97742627734195, "alt_km": 636.2053765867049, "timestamp": "2025-12-22T05:49:03.138885+00:00", "meta": {"OBJECT_NAME": "HUANJING 1A (HJ-1A)", "OBJECT_ID": "2008-041A", "EPOCH": "2025-12-21T20:52:32.784960", "MEAN_MOTION": 14.83420832, "ECCENTRICITY": 0.0019456, "INCLINATION": 97.6539, "RA_OF_ASC_NODE": 343.7868, "ARG_OF_PERICENTER": 5.5794, "MEAN_ANOMALY": 354.5633, "EPHEMERIS_TYPE": 0, "CLASSIFICATION_TYPE": "U", "NORAD_CAT_ID": 33320, "ELEMENT_SET_NO": 999, "REV_AT_EPOCH": 93211, "BSTAR": 0.0001694, "MEAN_MOTION_DOT": 1.344e-05, "MEAN_MOTION_DDOT": 0}, "tle": {"line1": "1 33320U 08041A   25355.86982390  .00001344  00000+0  16940-3 0  9993", "line2": "2 33320  97.6539 343.7868 0019456   5.5794 354.5633 14.83420832932116"}}, "geometry": {"type": "Point", "coordinates": [162.97742627734195, -8.607742209131974]}}, {"type": "Feature", "properties": {"norad_id": 33321, "name": "HUANJING 1B (HJ-1B)", "group": "resource", "lat": 29.498248733674888, "lon": -16.538918911414893, "alt_km": 593.3558381806179, "timestamp": "2025-12-22T05:49:03.138896+00:00", "meta": {"OBJECT_NAME": "HUANJING 1B (HJ-1B)", "OBJECT_ID": "2008-041B", "EPOCH": "2025-12-21T19:58:02.900928", "MEAN_MOTION": 14.82842744, "ECCENTRICITY": 0.0037984, "INCLINATION": 97.6397, "RA_OF_ASC_NODE": 347.4238, "ARG_OF_PERICENTER": 47.0055, "MEAN_ANOMALY": 313.4332, "EPHEMERIS_TYPE": 0, "CLASSIFICATION_TYPE": "U", "NORAD_CAT_ID": 33321, "ELEMENT_SET_NO": 999, "REV_AT_EPOCH": 93212, "BSTAR": 9.5249e-05, "MEAN_MOTION_DOT": 7.29e-06, "MEAN_MOTION_DDOT": 0}, "tle": {"line1": "1 33321U 08041B   25355.83197802  .00000729  00000+0  95249-4 0  9993", "line2": "2 33321  97.6397 347.4238 0037984  47.0055 313.4332 14.82842744932128"}}, "geometry": {"type": "Point", "coordinates": [-16.538918911414893, 29.498248733674888]}}, {"type": "Feature", "properties": {"norad_id": 33331, "name": "GEOEYE 1", "group": "resource", "lat": 60.66396680007231, "lon": -97.87251555533123, "alt_km": 673.2802024861167, "timestamp": "2025-12-22T05:49:03.138907+00:00", "meta": {"OBJECT_NAME": "GEOEYE 1", "OBJECT_ID": "2008-042A", "EPOCH": "2025-12-21T19:26:31.966080", "MEAN_MOTION": 14.64711512, "ECCENTRICITY": 0.000286, "INCLINATION": 98.1241, "RA_OF_ASC_NODE": 66.9762, "ARG_OF_PERICENTER": 245.2347, "MEAN_ANOMALY": 114.8558, "EPHEMERIS_TYPE": 0, "CLASSIFICATION_TYPE": "U", "NORAD_CAT_ID": 33331, "ELEMENT_SET_NO": 999, "REV_AT_EPOCH": 92418, "BSTAR": 9.6834e-05, "MEAN_MOTION_DOT": 4.68e-06, "MEAN_MOTION_DDOT": 0}, "tle": {"line1": "1 33331U 08042A   25355.81009220  .00000468  00000+0  96834-4 0  9990", "line2": "2 33331  98.1241  66.9762 0002860 245.2347 114.8558 14.64711512924187"}}, "geometry": {"type": "Point", "coordinates": [-97.87251555533123, 60.66396680007231]}}, {"type": "Feature", "properties": {"norad_id": 33396, "name": "THEOS", "group": "resource", "lat": -68.81027382779683, "lon": -148.88531975238604, "alt_km": 833.0657668126032, "timestamp": "2025-12-22T05:49:03.138918+00:00", "meta": {"OBJECT_NAME": "THEOS", "OBJECT_ID": "2008-049A", "EPOCH": "2025-12-21T20:11:11.661216", "MEAN_MOTION": 14.20097855, "ECCENTRICITY": 0.00012, "INCLINATION": 98.5859, "RA_OF_ASC_NODE": 53.6621, "ARG_OF_PERICENTER": 93.9244, "MEAN_ANOMALY": 266.207, "EPHEMERIS_TYPE": 0, "CLASSIFICATION_TYPE": "U", "NORAD_CAT_ID": 33396, "ELEMENT_SET_NO": 999, "REV_AT_EPOCH": 89279, "BSTAR": -2.0536e-05, "MEAN_MOTION_DOT": -8.6e-07, "MEAN_MOTION_DDOT": 0}, "tle": {"line1": "1 33396U 08049A   25355.84110719 -.00000086  00000+0 -20536-4 0  9991", "line2": "2 33396  98.5859  53.6621 0001200  93.9244 266.2070 14.20097855892796"}}, "geometry": {"type": "Point", "coordinates": [-148.88531975238604, -68.81027382779683]}}, {"type": "Feature", "properties": {"norad_id": 33412, "name": "COSMO-SKYMED 3", "group": "resource", "lat": 10.999459964202094, "lon": -154.74122492012387, "alt_km": 559.1232449322561, "timestamp": "2025-12-22T05:49:03.138929+00:00", "meta": {"OBJECT_NAME": "COSMO-SKYMED 3", "OBJECT_ID": "2008-054A", "EPOCH": "2025-12-21T20:11:48.833088", "MEAN_MOTION": 15.05431888, "ECCENTRICITY": 0.0017065, "INCLINATION": 97.8462, "RA_OF_ASC_NODE": 206.3872, "ARG_OF_PERICENTER": 141.6365, "MEAN_ANOMALY": 218.6078, "EPHEMERIS_TYPE": 0, "CLASSIFICATION_TYPE": "U", "NORAD_CAT_ID": 33412, "ELEMENT_SET_NO": 999, "REV_AT_EPOCH": 93024, "BSTAR": 0.00032446, "MEAN_MOTION_DOT": 4.607e-05, "MEAN_MOTION_DDOT": 0}, "tle": {"line1": "1 33412U 08054A   25355.84153742  .00004607  00000+0  32446-3 0  9992", "line2": "2 33412  97.8462 206.3872 0017065 141.6365 218.6078 15.05431888930247"}}, "geometry": {"type": "Point", "coordinates": [-154.74122492012387, 10.999459964202094]}}, {"type": "Feature", "properties": {"norad_id": 33446, "name": "YAOGAN-4", "group": "resource", "lat": -61.82574540713905, "lon": -58.68755541199894, "alt_km": 618.8969992548609, "timestamp": "2025-12-22T05:49:03.138939+00:00", "meta": {"OBJECT_NAME": "YAOGAN-4", "OBJECT_ID": "2008-061A", "EPOCH": "2025-12-21T18:45:45.373824", "MEAN_MOTION": 14.82706695, "ECCENTRICITY": 0.0013067, "INCLINATION": 97.9195, "RA_OF_ASC_NODE": 285.7927, "ARG_OF_PERICENTER": 291.438, "MEAN_ANOMALY": 68.5439, "EPHEMERIS_TYPE": 0, "CLASSIFICATION_TYPE": "U", "NORAD_CAT_ID": 33446, "ELEMENT_SET_NO": 999, "REV_AT_EPOCH": 91937, "BSTAR": 0.0001402, "MEAN_MOTION_DOT": 1.079e-05, "MEAN_MOTION_DDOT": 0}, "tle": {"line1": "1 33446U 08061A   25355.78177516  .00001079  00000+0  14020-3 0  9993", "line2": "2 33446  97.9195 285.7927 0013067 291.4380  68.5439 14.82706695919378"}}, "geometry": {"type": "Point", "coordinates": [-58.68755541199894, -61.82574540713905]}}]}